{
  "type": "FeatureCollection",
  "features": [
    {
      "type": "Feature",
      "properties": {
        "norad_id": 43246,
        "name": "BEIDOU-3 M10 (C30)",
        "group": "gnss",
        "lat": 43.19522282455842,
        "lon": 83.64152980729116,
        "alt_km": 21528.969729303808,
        "timestamp": "2025-12-27T18:38:03.721414+00:00",
        "meta_object_name": "BEIDOU-3 M10 (C30)",
        "meta_object_id": "2018-029B",
        "meta_epoch": "2025-12-27T01:21:39.455424",
        "meta_mean_motion": 1.86229161,
        "meta_eccentricity": 0.0004375,
        "meta_inclination": 54.3501,
        "meta_ra_of_asc_node": 305.9964,
        "meta_arg_of_pericenter": 3.4354,
        "meta_mean_anomaly": 356.5764,
        "meta_ephemeris_type": 0,
        "meta_classification_type": "U",
        "meta_norad_cat_id": 43246,
        "meta_element_set_no": 999,
        "meta_rev_at_epoch": 5267,
        "meta_bstar": 0,
        "meta_mean_motion_dot": -5.9e-07,
        "meta_mean_motion_ddot": 0,
        "tle_line1": "1 43246U 18029B   25361.05670666 -.00000059  00000+0  00000+0 0  9995",
        "tle_line2": "2 43246  54.3501 305.9964 0004375   3.4354 356.5764  1.86229161 52675"
      },
      "geometry": {
        "type": "Point",
        "coordinates": [
          83.64152980729116,
          43.19522282455842
        ]
      }
    },
    {
      "type": "Feature",
      "properties": {
        "norad_id": 43286,
        "name": "IRNSS-1I",
        "group": "gnss",
        "lat": -2.80987156794823,
        "lon": 71.83258981889638,
        "alt_km": 35877.10874221926,
        "timestamp": "2025-12-27T18:38:03.721425+00:00",
        "meta_object_name": "IRNSS-1I",
        "meta_object_id": "2018-035A",
        "meta_epoch": "2025-12-24T19:28:38.810784",
        "meta_mean_motion": 1.00274895,
        "meta_eccentricity": 0.00219107,
        "meta_inclination": 29.1759,
        "meta_ra_of_asc_node": 76.9122,
        "meta_arg_of_pericenter": 182.7933,
        "meta_mean_anomaly": 181.0586,
        "meta_ephemeris_type": 0,
        "meta_classification_type": "U",
        "meta_norad_cat_id": 43286,
        "meta_element_set_no": 999,
        "meta_rev_at_epoch": 2833,
        "meta_bstar": 0,
        "meta_mean_motion_dot": 9.2e-07,
        "meta_mean_motion_ddot": 0,
        "tle_line1": "1 43286U 18035A   25358.81156031  .00000092  00000+0  00000+0 0  9997",
        "tle_line2": "2 43286  29.1759  76.9122 0021910 182.7933 181.0586  1.00274895 28332"
      },
      "geometry": {
        "type": "Point",
        "coordinates": [
          71.83258981889638,
          -2.80987156794823
        ]
      }
    },
    {
      "type": "Feature",
      "properties": {
        "norad_id": 43508,
        "name": "COSMOS 2527 (756)",
        "group": "gnss",
        "lat": -19.37704830442251,
        "lon": 70.41533738699756,
        "alt_km": 19140.688383674296,
        "timestamp": "2025-12-27T18:38:03.721437+00:00",
        "meta_object_name": "COSMOS 2527 (756)",
        "meta_object_id": "2018-053A",
        "meta_epoch": "2025-12-25T22:15:18.516960",
        "meta_mean_motion": 2.13102285,
        "meta_eccentricity": 0.00091278,
        "meta_inclination": 65.4787,
        "meta_ra_of_asc_node": 79.6912,
        "meta_arg_of_pericenter": 228.9036,
        "meta_mean_anomaly": 131.0649,
        "meta_ephemeris_type": 0,
        "meta_classification_type": "U",
        "meta_norad_cat_id": 43508,
        "meta_element_set_no": 999,
        "meta_rev_at_epoch": 5858,
        "meta_bstar": 0,
        "meta_mean_motion_dot": -3e-08,
        "meta_mean_motion_ddot": 0,
        "tle_line1": "1 43508U 18053A   25359.92729765 -.00000003  00000+0  00000+0 0  9990",
        "tle_line2": "2 43508  65.4787  79.6912 0009127 228.9036 131.0649  2.13102285 58586"
      },
      "geometry": {
        "type": "Point",
        "coordinates": [
          70.41533738699756,
          -19.37704830442251
        ]
      }
    },
    {
      "type": "Feature",
      "properties": {
        "norad_id": 43539,
        "name": "BEIDOU-2 IGSO-7 (C16)",
        "group": "gnss",
        "lat": -29.981162949210546,
        "lon": 140.83149092703175,
        "alt_km": 35773.70967508843,
        "timestamp": "2025-12-27T18:38:03.721448+00:00",
        "meta_object_name": "BEIDOU-2 IGSO-7 (C16)",
        "meta_object_id": "2018-057A",
        "meta_epoch": "2025-12-23T21:03:51.666912",
        "meta_mean_motion": 1.00254881,
        "meta_eccentricity": 0.00930582,
        "meta_inclination": 55.1784,
        "meta_ra_of_asc_node": 164.5741,
        "meta_arg_of_pericenter": 235.1099,
        "meta_mean_anomaly": 119.1175,
        "meta_ephemeris_type": 0,
        "meta_classification_type": "U",
        "meta_norad_cat_id": 43539,
        "meta_element_set_no": 999,
        "meta_rev_at_epoch": 2736,
        "meta_bstar": 0,
        "meta_mean_motion_dot": -6.1e-07,
        "meta_mean_motion_ddot": 0,
        "tle_line1": "1 43539U 18057A   25357.87768133 -.00000061  00000+0  00000+0 0  9996",
        "tle_line2": "2 43539  55.1784 164.5741 0093058 235.1099 119.1175  1.00254881 27360"
      },
      "geometry": {
        "type": "Point",
        "coordinates": [
          140.83149092703175,
          -29.981162949210546
        ]
      }
    },
    {
      "type": "Feature",
      "properties": {
        "norad_id": 43564,
        "name": "GSAT0221 (GALILEO 25)",
        "group": "gnss",
        "lat": -2.8576130221944642,
        "lon": -15.440611171485543,
        "alt_km": 23215.790165748847,
        "timestamp": "2025-12-27T18:38:03.721462+00:00",
        "meta_object_name": "GSAT0221 (GALILEO 25)",
        "meta_object_id": "2018-060A",
        "meta_epoch": "2025-12-24T06:17:56.044608",
        "meta_mean_motion": 1.70475708,
        "meta_eccentricity": 0.00067277,
        "meta_inclination": 57.2252,
        "meta_ra_of_asc_node": 346.5066,
        "meta_arg_of_pericenter": 286.73,
        "meta_mean_anomaly": 73.2039,
        "meta_ephemeris_type": 0,
        "meta_classification_type": "U",
        "meta_norad_cat_id": 43564,
        "meta_element_set_no": 999,
        "meta_rev_at_epoch": 4618,
        "meta_bstar": 0,
        "meta_mean_motion_dot": -6.1e-07,
        "meta_mean_motion_ddot": 0,
        "tle_line1": "1 43564U 18060A   25358.26245422 -.00000061  00000+0  00000+0 0  9993",
        "tle_line2": "2 43564  57.2252 346.5066 0006727 286.7300  73.2039  1.70475708 46187"
      },
      "geometry": {
        "type": "Point",
        "coordinates": [
          -15.440611171485543,
          -2.8576130221944642
        ]
      }
    },
    {
      "type": "Feature",
      "properties": {
        "norad_id": 43565,
        "name": "GSAT0222 (GALILEO 26)",
        "group": "gnss",
        "lat": -34.15286819906731,
        "lon": -167.6845404525825,
        "alt_km": 23214.05727023419,
        "timestamp": "2025-12-27T18:38:03.721476+00:00",
        "meta_object_name": "GSAT0222 (GALILEO 26)",
        "meta_object_id": "2018-060B",
        "meta_epoch": "2025-12-26T19:52:33.130272",
        "meta_mean_motion": 1.70475295,
        "meta_eccentricity": 0.00060151,
        "meta_inclination": 57.228,
        "meta_ra_of_asc_node": 346.4403,
        "meta_arg_of_pericenter": 268.4272,
        "meta_mean_anomaly": 91.5133,
        "meta_ephemeris_type": 0,
        "meta_classification_type": "U",
        "meta_norad_cat_id": 43565,
        "meta_element_set_no": 999,
        "meta_rev_at_epoch": 4627,
        "meta_bstar": 0,
        "meta_mean_motion_dot": -6.1e-07,
        "meta_mean_motion_ddot": 0,
        "tle_line1": "1 43565U 18060B   25360.82816123 -.00000061  00000+0  00000+0 0  9991",
        "tle_line2": "2 43565  57.2280 346.4403 0006015 268.4272  91.5133  1.70475295 46277"
      },
      "geometry": {
        "type": "Point",
        "coordinates": [
          -167.6845404525825,
          -34.15286819906731
        ]
      }
    },
    {
      "type": "Feature",
      "properties": {
        "norad_id": 43566,
        "name": "GSAT0219 (GALILEO 23)",
        "group": "gnss",
        "lat": 57.023281650271116,
        "lon": 69.50945224077438,
        "alt_km": 23231.27357723351,
        "timestamp": "2025-12-27T18:38:03.721489+00:00",
        "meta_object_name": "GSAT0219 (GALILEO 23)",
        "meta_object_id": "2018-060C",
        "meta_epoch": "2025-12-26T11:06:17.532288",
        "meta_mean_motion": 1.70475524,
        "meta_eccentricity": 0.00059076,
        "meta_inclination": 57.2273,
        "meta_ra_of_asc_node": 346.4517,
        "meta_arg_of_pericenter": 292.2386,
        "meta_mean_anomaly": 67.708,
        "meta_ephemeris_type": 0,
        "meta_classification_type": "U",
        "meta_norad_cat_id": 43566,
        "meta_element_set_no": 999,
        "meta_rev_at_epoch": 4624,
        "meta_bstar": 0,
        "meta_mean_motion_dot": -6e-07,
        "meta_mean_motion_ddot": 0,
        "tle_line1": "1 43566U 18060C   25360.46270292 -.00000060  00000+0  00000+0 0  9992",
        "tle_line2": "2 43566  57.2273 346.4517 0005907 292.2386  67.7080  1.70475524 46244"
      },
      "geometry": {
        "type": "Point",
        "coordinates": [
          69.50945224077438,
          57.023281650271116
        ]
      }
    }
  ]
}